[{"OBJECT_NAME":"HST","OBJECT_ID":"1990-037B","EPOCH":"2026-03-09T03:50:04.164288","MEAN_MOTION":15.29473555,"ECCENTRICITY":0.00018372,"INCLINATION":28.4717,"RA_OF_ASC_NODE":43.6133,"ARG_OF_PERICENTER":120.9992,"MEAN_ANOMALY":239.0785,"EPHEMERIS_TYPE":0,"CLASSIFICATION_TYPE":"U","NORAD_CAT_ID":20580,"ELEMENT_SET_NO":999,"REV_AT_EPOCH":77323,"BSTAR":0.0003002261,"MEAN_MOTION_DOT":9.063e-5,"MEAN_MOTION_DDOT":0},{"OBJECT_NAME":"STARLINK-32358","OBJECT_ID":"2024-183Y","EPOCH":"2026-03-09T11:58:54.188256","MEAN_MOTION":15.30187982,"ECCENTRICITY":0.00011129,"INCLINATION":53.1606,"RA_OF_ASC_NODE":143.3115,"ARG_OF_PERICENTER":95.3145,"MEAN_ANOMALY":264.7983,"EPHEMERIS_TYPE":0,"CLASSIFICATION_TYPE":"U","NORAD_CAT_ID":61531,"ELEMENT_SET_NO":999,"REV_AT_EPOCH":7962,"BSTAR":3.0325626e-5,"MEAN_MOTION_DOT":5.39e-6,"MEAN_MOTION_DDOT":0}]
